[{"OBJECT_NAME":"STARLINK-5385","OBJECT_ID":"2022-177B","EPOCH":"2026-03-08T14:58:13.496448","MEAN_MOTION":15.02539294,"ECCENTRICITY":0.00013771,"INCLINATION":43.0019,"RA_OF_ASC_NODE":139.2425,"ARG_OF_PERICENTER":260.3181,"MEAN_ANOMALY":99.7505,"EPHEMERIS_TYPE":0,"CLASSIFICATION_TYPE":"U","NORAD_CAT_ID":54821,"ELEMENT_SET_NO":999,"REV_AT_EPOCH":17679,"BSTAR":8.519823e-5,"MEAN_MOTION_DOT":9.48e-6,"MEAN_MOTION_DDOT":0},{"OBJECT_NAME":"DELTA 2 R\/B(1)","OBJECT_ID":"1992-089B","EPOCH":"2026-03-09T21:18:04.780512","MEAN_MOTION":14.95843552,"ECCENTRICITY":0.00502643,"INCLINATION":20.2848,"RA_OF_ASC_NODE":268.5776,"ARG_OF_PERICENTER":187.692,"MEAN_ANOMALY":172.2737,"EPHEMERIS_TYPE":0,"CLASSIFICATION_TYPE":"U","NORAD_CAT_ID":22276,"ELEMENT_SET_NO":999,"REV_AT_EPOCH":77681,"BSTAR":0.00031307363,"MEAN_MOTION_DOT":4.132e-5,"MEAN_MOTION_DDOT":0}]
